[{"OBJECT_NAME":"KUIPER-00102","OBJECT_ID":"2025-171J","EPOCH":"2026-03-09T11:30:56.364192","MEAN_MOTION":14.80054819,"ECCENTRICITY":5.281e-5,"INCLINATION":51.8972,"RA_OF_ASC_NODE":154.0024,"ARG_OF_PERICENTER":76.7277,"MEAN_ANOMALY":283.3744,"EPHEMERIS_TYPE":0,"CLASSIFICATION_TYPE":"U","NORAD_CAT_ID":65140,"ELEMENT_SET_NO":999,"REV_AT_EPOCH":3292,"BSTAR":0.00078622756,"MEAN_MOTION_DOT":5.795e-5,"MEAN_MOTION_DDOT":0},{"OBJECT_NAME":"COSMOS 2251 DEB","OBJECT_ID":"1993-036WX","EPOCH":"2026-03-09T16:23:43.851552","MEAN_MOTION":14.73415943,"ECCENTRICITY":0.00286612,"INCLINATION":74.0475,"RA_OF_ASC_NODE":154.6902,"ARG_OF_PERICENTER":228.7917,"MEAN_ANOMALY":253.8078,"EPHEMERIS_TYPE":0,"CLASSIFICATION_TYPE":"U","NORAD_CAT_ID":34626,"ELEMENT_SET_NO":999,"REV_AT_EPOCH":90424,"BSTAR":0.00090683372,"MEAN_MOTION_DOT":5.891e-5,"MEAN_MOTION_DDOT":0}]
